[
    {
        "Altitude(m)": 703251.125880045,
        "Argument of Periapsis(deg)": 0.0,
        "Eccentricity": 0.0,
        "Inclination(deg)": 45.0,
        "Latitude(deg)": 22.545750929027147,
        "Longitude(deg)": -110.58087077712419,
        "Mean Anomaly(deg)": 32.72730000000001,
        "RAAN(deg)": 325.0,
        "Satellite Name": "Constellation 1 1432",
        "Satellite Number": 1432,
        "Semi-Major Axis(m)": 7083131.272910544,
        "Time(s)": 0
    },
    {
        "Altitude(m)": 703255.2536171083,
        "Argument of Periapsis(deg)": 5.994800624540561e-05,
        "Eccentricity": 0.0,
        "Inclination(deg)": 45.0,
        "Latitude(deg)": 22.58506206778366,
        "Longitude(deg)": -110.53475114276694,
        "Mean Anomaly(deg)": 32.7880011402499,
        "RAAN(deg)": 324.9999434108344,
        "Satellite Name": "Constellation 1 1432",
        "Satellite Number": 1432,
        "Semi-Major Axis(m)": 7083131.272910544,
        "Time(s)": 1
    },
    {
        "Altitude(m)": 703259.3931248599,
        "Argument of Periapsis(deg)": 0.00011989601249081122,
        "Eccentricity": 0.0,
        "Inclination(deg)": 45.0,
        "Latitude(deg)": 22.624357318599955,
        "Longitude(deg)": -110.48860300359544,
        "Mean Anomaly(deg)": 32.848702280499836,
        "RAAN(deg)": 324.99988682166884,
        "Satellite Name": "Constellation 1 1432",
        "Satellite Number": 1432,
        "Semi-Major Axis(m)": 7083131.272910544,
        "Time(s)": 2
    },
    {
        "Altitude(m)": 703263.5443686199,
        "Argument of Periapsis(deg)": 0.00017984401873621686,
        "Eccentricity": 0.0,
        "Inclination(deg)": 45.0,
        "Latitude(deg)": 22.66363664207167,
        "Longitude(deg)": -110.44242629982453,
        "Mean Anomaly(deg)": 32.90940342074972,
        "RAAN(deg)": 324.99983023250326,
        "Satellite Name": "Constellation 1 1432",
        "Satellite Number": 1432,
        "Semi-Major Axis(m)": 7083131.272910544,
        "Time(s)": 3
    },
    {
        "Altitude(m)": 703267.7073136612,
        "Argument of Periapsis(deg)": 0.00023979202498162244,
        "Eccentricity": 0.0,
        "Inclination(deg)": 45.0,
        "Latitude(deg)": 22.702899998738236,
        "Longitude(deg)": -110.39622097164892,
        "Mean Anomaly(deg)": 32.97010456099961,
        "RAAN(deg)": 324.99977364333773,
        "Satellite Name": "Constellation 1 1432",
        "Satellite Number": 1432,
        "Semi-Major Axis(m)": 7083131.272910544,
        "Time(s)": 4
    },
    {
        "Altitude(m)": 703271.8819252194,
        "Argument of Periapsis(deg)": 0.00029974003122702807,
        "Eccentricity": 0.0,
        "Inclination(deg)": 45.0,
        "Latitude(deg)": 22.742147349082632,
        "Longitude(deg)": -110.34998695924374,
        "Mean Anomaly(deg)": 33.03080570124949,
        "RAAN(deg)": 324.99971705417215,
        "Satellite Name": "Constellation 1 1432",
        "Satellite Number": 1432,
        "Semi-Major Axis(m)": 7083131.272910544,
        "Time(s)": 5
    },
    {
        "Altitude(m)": 703276.0681684942,
        "Argument of Periapsis(deg)": 0.00035968803747243373,
        "Eccentricity": 0.0,
        "Inclination(deg)": 45.0,
        "Latitude(deg)": 22.78137865353135,
        "Longitude(deg)": -110.30372420276468,
        "Mean Anomaly(deg)": 33.09150684149943,
        "RAAN(deg)": 324.99966046500657,
        "Satellite Name": "Constellation 1 1432",
        "Satellite Number": 1432,
        "Semi-Major Axis(m)": 7083131.272910544,
        "Time(s)": 6
    },
    {
        "Altitude(m)": 703280.2660086297,
        "Argument of Periapsis(deg)": 0.00041963604371783933,
        "Eccentricity": 0.0,
        "Inclination(deg)": 45.0,
        "Latitude(deg)": 22.82059387245442,
        "Longitude(deg)": -110.25743281044488,
        "Mean Anomaly(deg)": 33.152207981749314,
        "RAAN(deg)": 324.999603875841,
        "Satellite Name": "Constellation 1 1432",
        "Satellite Number": 1432,
        "Semi-Major Axis(m)": 7083131.272910544,
        "Time(s)": 7
    },
    {
        "Altitude(m)": 703284.475410742,
        "Argument of Periapsis(deg)": 0.0004795840499632449,
        "Eccentricity": 0.0,
        "Inclination(deg)": 45.0,
        "Latitude(deg)": 22.85979296616474,
        "Longitude(deg)": -110.21111238620769,
        "Mean Anomaly(deg)": 33.2129091219992,
        "RAAN(deg)": 324.9995472866754,
        "Satellite Name": "Constellation 1 1432",
        "Satellite Number": 1432,
        "Semi-Major Axis(m)": 7083131.272910544,
        "Time(s)": 8
    },
    {
        "Altitude(m)": 703288.6963399053,
        "Argument of Periapsis(deg)": 0.0005395320562086505,
        "Eccentricity": 0.0,
        "Inclination(deg)": 45.0,
        "Latitude(deg)": 22.898975894918728,
        "Longitude(deg)": -110.16476303824818,
        "Mean Anomaly(deg)": 33.27361026224904,
        "RAAN(deg)": 324.9994906975099,
        "Satellite Name": "Constellation 1 1432",
        "Satellite Number": 1432,
        "Semi-Major Axis(m)": 7083131.272910544,
        "Time(s)": 9
    },
    {
        "Altitude(m)": 703292.9287611453,
        "Argument of Periapsis(deg)": 0.0005994800624540561,
        "Eccentricity": 0.0,
        "Inclination(deg)": 45.0,
        "Latitude(deg)": 22.938142618915887,
        "Longitude(deg)": -110.11838470664561,
        "Mean Anomaly(deg)": 33.33431140249903,
        "RAAN(deg)": 324.99943410834425,
        "Satellite Name": "Constellation 1 1432",
        "Satellite Number": 1432,
        "Semi-Major Axis(m)": 7083131.272910544,
        "Time(s)": 10
    },
    {
        "Altitude(m)": 703297.1726394517,
        "Argument of Periapsis(deg)": 0.0006594280686994618,
        "Eccentricity": 0.0,
        "Inclination(deg)": 45.0,
        "Latitude(deg)": 22.977293098298354,
        "Longitude(deg)": -110.07197733146101,
        "Mean Anomaly(deg)": 33.39501254274886,
        "RAAN(deg)": 324.9993775191787,
        "Satellite Name": "Constellation 1 1432",
        "Satellite Number": 1432,
        "Semi-Major Axis(m)": 7083131.272910544,
        "Time(s)": 11
    },
    {
        "Altitude(m)": 703301.4279397749,
        "Argument of Periapsis(deg)": 0.0007193760749448675,
        "Eccentricity": 0.0,
        "Inclination(deg)": 45.0,
        "Latitude(deg)": 23.016427293151423,
        "Longitude(deg)": -110.0255408527366,
        "Mean Anomaly(deg)": 33.45571368299875,
        "RAAN(deg)": 324.99932093001314,
        "Satellite Name": "Constellation 1 1432",
        "Satellite Number": 1432,
        "Semi-Major Axis(m)": 7083131.272910544,
        "Time(s)": 12
    },
    {
        "Altitude(m)": 703305.6946270218,
        "Argument of Periapsis(deg)": 0.000779324081190273,
        "Eccentricity": 0.0,
        "Inclination(deg)": 45.0,
        "Latitude(deg)": 23.055545163502877,
        "Longitude(deg)": -109.97907521049659,
        "Mean Anomaly(deg)": 33.51641482324869,
        "RAAN(deg)": 324.9992643408476,
        "Satellite Name": "Constellation 1 1432",
        "Satellite Number": 1432,
        "Semi-Major Axis(m)": 7083131.272910544,
        "Time(s)": 13
    },
    {
        "Altitude(m)": 703309.9726660671,
        "Argument of Periapsis(deg)": 0.0008392720874356787,
        "Eccentricity": 0.0,
        "Inclination(deg)": 45.0,
        "Latitude(deg)": 23.094646669323183,
        "Longitude(deg)": -109.93258034474718,
        "Mean Anomaly(deg)": 33.57711596349858,
        "RAAN(deg)": 324.99920775168204,
        "Satellite Name": "Constellation 1 1432",
        "Satellite Number": 1432,
        "Semi-Major Axis(m)": 7083131.272910544,
        "Time(s)": 14
    },
    {
        "Altitude(m)": 703314.2620217344,
        "Argument of Periapsis(deg)": 0.0008992200936810842,
        "Eccentricity": 0.0,
        "Inclination(deg)": 45.0,
        "Latitude(deg)": 23.133731770525465,
        "Longitude(deg)": -109.88605636357349,
        "Mean Anomaly(deg)": 33.63781710374846,
        "RAAN(deg)": 324.9991511625164,
        "Satellite Name": "Constellation 1 1432",
        "Satellite Number": 1432,
        "Semi-Major Axis(m)": 7083131.272910544,
        "Time(s)": 15
    },
    {
        "Altitude(m)": 703318.5626588196,
        "Argument of Periapsis(deg)": 0.0009591680999264898,
        "Eccentricity": 0.0,
        "Inclination(deg)": 45.0,
        "Latitude(deg)": 23.17280042696476,
        "Longitude(deg)": -109.83950287075244,
        "Mean Anomaly(deg)": 33.69851824399835,
        "RAAN(deg)": 324.9990945733509,
        "Satellite Name": "Constellation 1 1432",
        "Satellite Number": 1432,
        "Semi-Major Axis(m)": 7083131.272910544,
        "Time(s)": 16
    },
    {
        "Altitude(m)": 703322.8745420664,
        "Argument of Periapsis(deg)": 0.0010191161061718953,
        "Eccentricity": 0.0,
        "Inclination(deg)": 45.0,
        "Latitude(deg)": 23.21185259843881,
        "Longitude(deg)": -109.79291997433411,
        "Mean Anomaly(deg)": 33.75921938424829,
        "RAAN(deg)": 324.9990379841853,
        "Satellite Name": "Constellation 1 1432",
        "Satellite Number": 1432,
        "Semi-Major Axis(m)": 7083131.272910544,
        "Time(s)": 17
    },
    {
        "Altitude(m)": 703327.197636187,
        "Argument of Periapsis(deg)": 0.001079064112417301,
        "Eccentricity": 0.0,
        "Inclination(deg)": 45.0,
        "Latitude(deg)": 23.25088824468736,
        "Longitude(deg)": -109.74630761425455,
        "Mean Anomaly(deg)": 33.81992052449817,
        "RAAN(deg)": 324.99898139501977,
        "Satellite Name": "Constellation 1 1432",
        "Satellite Number": 1432,
        "Semi-Major Axis(m)": 7083131.272910544,
        "Time(s)": 18
    }
]